IRIDIUM 63              
1 25286U 98021B   25132.93351178  .00000450  00000+0  14653-3 0  9993
2 25286  86.3953  96.9218 0002426  84.3672 275.7802 14.36518473418789
IRIDIUM 69              
1 25319U 98026A   25132.84583306  .00000479  00000+0  14312-3 0  9998
2 25319  86.3943 110.3585 0004210 114.4684 245.6955 14.40934152417970
IRIDIUM 73              
1 25344U 98032C   25132.90798482  .00000663  00000+0  16010-3 0  9995
2 25344  86.4423  61.7968 0002969  91.9733 268.1813 14.51675534425441
IRIDIUM 82              
1 25467U 98051A   25132.93862536  .00027219  00000+0  80956-3 0  9993
2 25467  86.3646 127.0476 0091577  71.5499 289.5677 15.30444459418567
